{
  "type": "FeatureCollection",
  "features": [
    {
      "type": "Feature",
      "properties": {
        "norad_id": 31608,
        "name": "FENGYUN 1C DEB",
        "group": "fengyun-1c-debris",
        "lat": -51.38184034138527,
        "lon": 121.74805065792968,
        "alt_km": 582.5689645737693,
        "timestamp": "2025-12-18T15:47:11.506566+00:00",
        "meta_object_name": "FENGYUN 1C DEB",
        "meta_object_id": "1999-025BZN",
        "meta_epoch": "2025-12-17T14:09:29.850912",
        "meta_mean_motion": 14.85908283,
        "meta_eccentricity": 0.01457059,
        "meta_inclination": 98.3797,
        "meta_ra_of_asc_node": 109.9897,
        "meta_arg_of_pericenter": 22.0076,
        "meta_mean_anomaly": 338.7309,
        "meta_ephemeris_type": 0,
        "meta_classification_type": "U",
        "meta_norad_cat_id": 31608,
        "meta_element_set_no": 999,
        "meta_rev_at_epoch": 98705,
        "meta_bstar": 0.00045964647,
        "meta_mean_motion_dot": 4.79e-05,
        "meta_mean_motion_ddot": 0,
        "tle_line1": "1 31608U 99025BZN 25351.58992883  .00004790  00000+0  45965-3 0  9992",
        "tle_line2": "2 31608  98.3797 109.9897 0145705  22.0076 338.7309 14.85908283987055"
      },
      "geometry": {
        "type": "Point",
        "coordinates": [
          121.74805065792968,
          -51.38184034138527
        ]
      }
    },
    {
      "type": "Feature",
      "properties": {
        "norad_id": 31609,
        "name": "FENGYUN 1C DEB",
        "group": "fengyun-1c-debris",
        "lat": 80.66499290180036,
        "lon": -77.60076031128519,
        "alt_km": 889.8030413020897,
        "timestamp": "2025-12-18T15:47:11.506577+00:00",
        "meta_object_name": "FENGYUN 1C DEB",
        "meta_object_id": "1999-025BZP",
        "meta_epoch": "2025-12-15T00:59:33.000288",
        "meta_mean_motion": 14.15782518,
        "meta_eccentricity": 0.00948096,
        "meta_inclination": 99.2167,
        "meta_ra_of_asc_node": 17.645,
        "meta_arg_of_pericenter": 313.866,
        "meta_mean_anomaly": 74.7981,
        "meta_ephemeris_type": 0,
        "meta_classification_type": "U",
        "meta_norad_cat_id": 31609,
        "meta_element_set_no": 999,
        "meta_rev_at_epoch": 66117,
        "meta_bstar": 0.0017564085,
        "meta_mean_motion_dot": 3.557e-05,
        "meta_mean_motion_ddot": 0,
        "tle_line1": "1 31609U 99025BZP 25349.04135417  .00003557  00000+0  17564-2 0  9996",
        "tle_line2": "2 31609  99.2167  17.6450 0094809 313.8660  74.7981 14.15782518661174"
      },
      "geometry": {
        "type": "Point",
        "coordinates": [
          -77.60076031128519,
          80.66499290180036
        ]
      }
    },
    {
      "type": "Feature",
      "properties": {
        "norad_id": 31612,
        "name": "FENGYUN 1C DEB",
        "group": "fengyun-1c-debris",
        "lat": -58.1000735753643,
        "lon": -71.89124821525498,
        "alt_km": 373.5005061144793,
        "timestamp": "2025-12-18T15:47:11.506587+00:00",
        "meta_object_name": "FENGYUN 1C DEB",
        "meta_object_id": "1999-025BZS",
        "meta_epoch": "2025-12-15T05:34:20.315712",
        "meta_mean_motion": 15.71781669,
        "meta_eccentricity": 0.00321406,
        "meta_inclination": 100.3339,
        "meta_ra_of_asc_node": 265.9962,
        "meta_arg_of_pericenter": 93.9662,
        "meta_mean_anomaly": 266.5266,
        "meta_ephemeris_type": 0,
        "meta_classification_type": "U",
        "meta_norad_cat_id": 31612,
        "meta_element_set_no": 999,
        "meta_rev_at_epoch": 44,
        "meta_bstar": 0.0014945855,
        "meta_mean_motion_dot": 0.00203446,
        "meta_mean_motion_ddot": 0,
        "tle_line1": "1 31612U 99025BZS 25349.23217958  .00203446  00000+0  14946-2 0  9992",
        "tle_line2": "2 31612 100.3339 265.9962 0032140  93.9662 266.5266 15.71781669   440"
      },
      "geometry": {
        "type": "Point",
        "coordinates": [
          -71.89124821525498,
          -58.1000735753643
        ]
      }
    },
    {
      "type": "Feature",
      "properties": {
        "norad_id": 31613,
        "name": "FENGYUN 1C DEB",
        "group": "fengyun-1c-debris",
        "lat": 44.89984523855965,
        "lon": 170.43218945542768,
        "alt_km": 834.8997305620887,
        "timestamp": "2025-12-18T15:47:11.506598+00:00",
        "meta_object_name": "FENGYUN 1C DEB",
        "meta_object_id": "1999-025BZT",
        "meta_epoch": "2025-12-17T23:43:09.488928",
        "meta_mean_motion": 13.63457021,
        "meta_eccentricity": 0.03426681,
        "meta_inclination": 98.4238,
        "meta_ra_of_asc_node": 178.3427,
        "meta_arg_of_pericenter": 92.1319,
        "meta_mean_anomaly": 271.91,
        "meta_ephemeris_type": 0,
        "meta_classification_type": "U",
        "meta_norad_cat_id": 31613,
        "meta_element_set_no": 999,
        "meta_rev_at_epoch": 91833,
        "meta_bstar": 0.0010710704,
        "meta_mean_motion_dot": 1.224e-05,
        "meta_mean_motion_ddot": 0,
        "tle_line1": "1 31613U 99025BZT 25351.98830427  .00001224  00000+0  10711-2 0  9996",
        "tle_line2": "2 31613  98.4238 178.3427 0342668  92.1319 271.9100 13.63457021918332"
      },
      "geometry": {
        "type": "Point",
        "coordinates": [
          170.43218945542768,
          44.89984523855965
        ]
      }
    },
    {
      "type": "Feature",
      "properties": {
        "norad_id": 31614,
        "name": "FENGYUN 1C DEB",
        "group": "fengyun-1c-debris",
        "lat": 72.22441313020497,
        "lon": -130.21411419260124,
        "alt_km": 563.3142501126949,
        "timestamp": "2025-12-18T15:47:11.506608+00:00",
        "meta_object_name": "FENGYUN 1C DEB",
        "meta_object_id": "1999-025BZU",
        "meta_epoch": "2025-12-18T04:57:15.109632",
        "meta_mean_motion": 14.98336687,
        "meta_eccentricity": 0.00197803,
        "meta_inclination": 98.9752,
        "meta_ra_of_asc_node": 258.8043,
        "meta_arg_of_pericenter": 352.2326,
        "meta_mean_anomaly": 168.9938,
        "meta_ephemeris_type": 0,
        "meta_classification_type": "U",
        "meta_norad_cat_id": 31614,
        "meta_element_set_no": 999,
        "meta_rev_at_epoch": 96511,
        "meta_bstar": 0.0072873342,
        "meta_mean_motion_dot": 0.00088121,
        "meta_mean_motion_ddot": 0,
        "tle_line1": "1 31614U 99025BZU 25352.20642488  .00088121  00000+0  72873-2 0  9999",
        "tle_line2": "2 31614  98.9752 258.8043 0019780 352.2326 168.9938 14.98336687965116"
      },
      "geometry": {
        "type": "Point",
        "coordinates": [
          -130.21411419260124,
          72.22441313020497
        ]
      }
    },
    {
      "type": "Feature",
      "properties": {
        "norad_id": 31615,
        "name": "FENGYUN 1C DEB",
        "group": "fengyun-1c-debris",
        "lat": 13.640968185909077,
        "lon": 42.19864479382535,
        "alt_km": 741.1426498927312,
        "timestamp": "2025-12-18T15:47:11.506618+00:00",
        "meta_object_name": "FENGYUN 1C DEB",
        "meta_object_id": "1999-025BZV",
        "meta_epoch": "2025-12-17T21:19:17.155200",
        "meta_mean_motion": 14.35438155,
        "meta_eccentricity": 0.01662607,
        "meta_inclination": 99.1384,
        "meta_ra_of_asc_node": 43.6226,
        "meta_arg_of_pericenter": 301.5799,
        "meta_mean_anomaly": 56.9245,
        "meta_ephemeris_type": 0,
        "meta_classification_type": "U",
        "meta_norad_cat_id": 31615,
        "meta_element_set_no": 999,
        "meta_rev_at_epoch": 65352,
        "meta_bstar": 0.0023099232,
        "meta_mean_motion_dot": 7.716e-05,
        "meta_mean_motion_ddot": 0,
        "tle_line1": "1 31615U 99025BZV 25351.88839300  .00007716  00000+0  23099-2 0  9991",
        "tle_line2": "2 31615  99.1384  43.6226 0166260 301.5799  56.9245 14.35438155653521"
      },
      "geometry": {
        "type": "Point",
        "coordinates": [
          42.19864479382535,
          13.640968185909077
        ]
      }
    },
    {
      "type": "Feature",
      "properties": {
        "norad_id": 31618,
        "name": "FENGYUN 1C DEB",
        "group": "fengyun-1c-debris",
        "lat": 47.925699561186114,
        "lon": -33.38030385240229,
        "alt_km": 930.4689927626578,
        "timestamp": "2025-12-18T15:47:11.506628+00:00",
        "meta_object_name": "FENGYUN 1C DEB",
        "meta_object_id": "1999-025BZY",
        "meta_epoch": "2025-12-16T05:42:38.070432",
        "meta_mean_motion": 14.21025507,
        "meta_eccentricity": 0.0156911,
        "meta_inclination": 99.4431,
        "meta_ra_of_asc_node": 133.4105,
        "meta_arg_of_pericenter": 316.1709,
        "meta_mean_anomaly": 42.7101,
        "meta_ephemeris_type": 0,
        "meta_classification_type": "U",
        "meta_norad_cat_id": 31618,
        "meta_element_set_no": 999,
        "meta_rev_at_epoch": 70314,
        "meta_bstar": 0.00029177742,
        "meta_mean_motion_dot": 6.65e-06,
        "meta_mean_motion_ddot": 0,
        "tle_line1": "1 31618U 99025BZY 25350.23794063  .00000665  00000+0  29178-3 0  9999",
        "tle_line2": "2 31618  99.4431 133.4105 0156911 316.1709  42.7101 14.21025507703145"
      },
      "geometry": {
        "type": "Point",
        "coordinates": [
          -33.38030385240229,
          47.925699561186114
        ]
      }
    }
  ]
}